[{"OBJECT_NAME":"STARLINK-31728","OBJECT_ID":"2024-071N","EPOCH":"2026-03-09T02:04:28.147296","MEAN_MOTION":15.27551096,"ECCENTRICITY":0.00019046,"INCLINATION":43.0043,"RA_OF_ASC_NODE":343.1232,"ARG_OF_PERICENTER":251.6182,"MEAN_ANOMALY":108.4463,"EPHEMERIS_TYPE":0,"CLASSIFICATION_TYPE":"U","NORAD_CAT_ID":59496,"ELEMENT_SET_NO":999,"REV_AT_EPOCH":10811,"BSTAR":0.0010473047,"MEAN_MOTION_DOT":0.00028644,"MEAN_MOTION_DDOT":0},{"OBJECT_NAME":"HERMES-2","OBJECT_ID":"2025-052AK","EPOCH":"2026-03-09T22:17:00.130272","MEAN_MOTION":15.28021069,"ECCENTRICITY":0.00063399,"INCLINATION":97.4004,"RA_OF_ASC_NODE":324.4926,"ARG_OF_PERICENTER":99.416,"MEAN_ANOMALY":260.7796,"EPHEMERIS_TYPE":0,"CLASSIFICATION_TYPE":"U","NORAD_CAT_ID":63243,"ELEMENT_SET_NO":999,"REV_AT_EPOCH":5485,"BSTAR":0.00034839454,"MEAN_MOTION_DOT":9.456e-5,"MEAN_MOTION_DDOT":0}]
